[{"OBJECT_NAME":"ICEYE-X33","OBJECT_ID":"2024-149CJ","EPOCH":"2026-03-09T17:04:13.303776","MEAN_MOTION":15.0113344,"ECCENTRICITY":0.00060627,"INCLINATION":97.7033,"RA_OF_ASC_NODE":148.5516,"ARG_OF_PERICENTER":122.8099,"MEAN_ANOMALY":237.371,"EPHEMERIS_TYPE":0,"CLASSIFICATION_TYPE":"U","NORAD_CAT_ID":60548,"ELEMENT_SET_NO":999,"REV_AT_EPOCH":8528,"BSTAR":0.00045891369,"MEAN_MOTION_DOT":5.822e-5,"MEAN_MOTION_DDOT":0},{"OBJECT_NAME":"STARLINK-35898","OBJECT_ID":"2025-280F","EPOCH":"2026-03-09T21:57:09.540000","MEAN_MOTION":14.98331395,"ECCENTRICITY":0.00023614,"INCLINATION":70.0019,"RA_OF_ASC_NODE":333.7246,"ARG_OF_PERICENTER":270.0315,"MEAN_ANOMALY":90.0573,"EPHEMERIS_TYPE":0,"CLASSIFICATION_TYPE":"U","NORAD_CAT_ID":66826,"ELEMENT_SET_NO":999,"REV_AT_EPOCH":1611,"BSTAR":0.00051675737,"MEAN_MOTION_DOT":6.078e-5,"MEAN_MOTION_DDOT":0}]
